$$SOE
2460147.500000000, A.D. 2023-Jul-22 00:00:00.0000, 2.648807815540044E+08, -1.930468102073671E+07, 2.012562301884402E+07,
2460154.500000000, A.D. 2023-Jul-29 00:00:00.0000, 2.651817610009852E+08, -6.099062889454359E+06, 2.469277867629471E+07,
2460161.500000000, A.D. 2023-Aug-05 00:00:00.0000, 2.648020469347536E+08, 7.122299256316992E+06, 2.919653895687250E+07,
2460168.500000000, A.D. 2023-Aug-12 00:00:00.0000, 2.637434026889274E+08, 2.032549062977855E+07, 3.362542877176043E+07,
2460175.500000000, A.D. 2023-Aug-19 00:00:00.0000, 2.620096981671476E+08, 3.347674945781571E+07, 3.796823857838452E+07,
2460182.500000000, A.D. 2023-Aug-26 00:00:00.0000, 2.596068805847631E+08, 4.654260781892933E+07, 4.221406979960147E+07,
2460189.500000000, A.D. 2023-Sep-02 00:00:00.0000, 2.565429326867636E+08, 5.949002903310658E+07, 4.635237781818128E+07,
2460196.500000000, A.D. 2023-Sep-09 00:00:00.0000, 2.528278190826266E+08, 7.228654034400985E+07, 5.037301218894231E+07,
2460203.500000000, A.D. 2023-Sep-16 00:00:00.0000, 2.484734216170140E+08, 8.490035969658063E+07, 5.426625374202907E+07,
2460210.500000000, A.D. 2023-Sep-23 00:00:00.0000, 2.434934650615533E+08, 9.730051585039672E+07, 5.802284829532464E+07,
2460217.500000000, A.D. 2023-Sep-30 00:00:00.0000, 2.379034337372032E+08, 1.094569620978177E+08, 6.163403687033735E+07,
2460224.500000000, A.D. 2023-Oct-07 00:00:00.0000, 2.317204777533135E+08, 1.213406822960600E+08, 6.509158240854015E+07,
2460231.500000000, A.D. 2023-Oct-14 00:00:00.0000, 2.249633110552475E+08, 1.329237853011682E+08, 6.838779252809015E+07,
2460238.500000000, A.D. 2023-Oct-21 00:00:00.0000, 2.176521057036400E+08, 1.441795889259750E+08, 7.151553811780882E+07,
2460245.500000000, A.D. 2023-Oct-28 00:00:00.0000, 2.098083821617242E+08, 1.550826953390273E+08, 7.446826809343937E+07,
2460252.500000000, A.D. 2023-Nov-04 00:00:00.0000, 2.014548955358417E+08, 1.656090569313927E+08, 7.724002041996948E+07,
2460259.500000000, A.D. 2023-Nov-11 00:00:00.0000, 1.926155191107022E+08, 1.757360319905847E+08, 7.982542942481127E+07,
2460266.500000000, A.D. 2023-Nov-18 00:00:00.0000, 1.833151265165847E+08, 1.854424301950273E+08, 8.221972950835410E+07,
2460273.500000000, A.D. 2023-Nov-25 00:00:00.0000, 1.735794736629250E+08, 1.947085481535693E+08, 8.441875542163447E+07,
2460280.500000000, A.D. 2023-Dec-02 00:00:00.0000, 1.634350814608981E+08, 2.035161952863399E+08, 8.641893931832221E+07,
2460287.500000000, A.D. 2023-Dec-09 00:00:00.0000, 1.529091203281143E+08, 2.118487103847475E+08, 8.821730480576590E+07,
2460294.500000000, A.D. 2023-Dec-16 00:00:00.0000, 1.420292975896171E+08, 2.196909693369967E+08, 8.981145822389235E+07,
2460301.500000000, A.D. 2023-Dec-23 00:00:00.0000, 1.308237488590441E+08, 2.270293852454033E+08, 9.119957744208865E+07,
2460308.500000000, A.D. 2023-Dec-30 00:00:00.0000, 1.193209326988933E+08, 2.338519025637160E+08, 9.238039864686300E+07,
2460315.500000000, A.D. 2024-Jan-06 00:00:00.0000, 1.075495273062864E+08, 2.401479835049502E+08, 9.335320134637427E+07,
2460322.500000000, A.D. 2024-Jan-13 00:00:00.0000, 9.553833282322046E+07, 2.459085855770656E+08, 9.411779142789871E+07,
2460329.500000000, A.D. 2024-Jan-20 00:00:00.0000, 8.331618085093029E+07, 2.511261339998969E+08, 9.467448267706563E+07,
2460336.500000000, A.D. 2024-Jan-27 00:00:00.0000, 7.091184939218454E+07, 2.557944903094606E+08, 9.502407724470474E+07,
2460343.500000000, A.D. 2024-Feb-03 00:00:00.0000, 5.835398295608164E+07, 2.599089168521338E+08, 9.516784526147655E+07,
2460350.500000000, A.D. 2024-Feb-10 00:00:00.0000, 4.567101819195019E+07, 2.634660375145063E+08, 9.510750377877523E+07,
2460357.500000000, A.D. 2024-Feb-17 00:00:00.0000, 3.289111521189127E+07, 2.664637953089288E+08, 9.484519523623925E+07,
2460364.500000000, A.D. 2024-Feb-24 00:00:00.0000, 2.004209459669410E+07, 2.689014074107857E+08, 9.438346564923297E+07,
2460371.500000000, A.D. 2024-Mar-02 00:00:00.0000, 7.151380018688614E+06, 2.707793181609848E+08, 9.372524268871808E+07,
2460378.500000000, A.D. 2024-Mar-09 00:00:00.0000, -5.754053522653965E+06, 2.720991504783212E+08, 9.287381379540566E+07,
2460385.500000000, A.D. 2024-Mar-16 00:00:00.0000, -1.864772564070692E+07, 2.728636563465758E+08, 9.183280445037980E+07,
2460392.500000000, A.D. 2024-Mar-23 00:00:00.0000, -3.150369099776942E+07, 2.730766679159035E+08, 9.060615682973146E+07,
2460399.500000000, A.D. 2024-Mar-30 00:00:00.0000, -4.429657671327287E+07, 2.727430495830992E+08, 8.919810915706673E+07,
2460406.500000000, A.D. 2024-Apr-06 00:00:00.0000, -5.700161674031366E+07, 2.718686480130040E+08, 8.761317553767107E+07,
2460413.500000000, A.D. 2024-Apr-13 00:00:00.0000, -6.959467994748998E+07, 2.704602412307037E+08, 8.585612609055412E+07,
2460420.500000000, A.D. 2024-Apr-20 00:00:00.0000, -8.205229314555189E+07, 2.685254897409570E+08, 8.393196775596371E+07,
2460427.500000000, A.D. 2024-Apr-27 00:00:00.0000, -9.435166085619666E+07, 2.660728893425484E+08, 8.184592591975029E+07,
2460434.500000000, A.D. 2024-May-04 00:00:00.0000, -1.064706820233780E+08, 2.631117251205523E+08, 7.960342682243255E+07,
2460441.500000000, A.D. 2024-May-11 00:00:00.0000, -1.183879637171294E+08, 2.596520266717043E+08, 7.721008074765596E+07,
2460448.500000000, A.D. 2024-May-18 00:00:00.0000, -1.300828320306375E+08, 2.557045247128167E+08, 7.467166600006770E+07,
2460455.500000000, A.D. 2024-May-25 00:00:00.0000, -1.415353404209397E+08, 2.512806091657546E+08, 7.199411367680192E+07,
2460462.500000000, A.D. 2024-Jun-01 00:00:00.0000, -1.527262756994006E+08, 2.463922887366074E+08, 6.918349322171026E+07,
2460469.500000000, A.D. 2024-Jun-08 00:00:00.0000, -1.636371616814206E+08, 2.410521520178804E+08, 6.624599873053020E+07,
2460476.500000000, A.D. 2024-Jun-15 00:00:00.0000, -1.742502603415039E+08, 2.352733306898436E+08, 6.318793600214536E+07,
2460483.500000000, A.D. 2024-Jun-22 00:00:00.0000, -1.845485717165912E+08, 2.290694660123852E+08, 6.001571050810350E+07,
2460490.500000000, A.D. 2024-Jun-29 00:00:00.0000, -1.945158349036926E+08, 2.224546767970755E+08, 5.673581630713646E+07,
2460497.500000000, A.D. 2024-Jul-06 00:00:00.0000, -2.041365276993553E+08, 2.154435263793176E+08, 5.335482543076454E+07,
2460504.500000000, A.D. 2024-Jul-13 00:00:00.0000, -2.133958631101445E+08, 2.080509913740817E+08, 4.987937775474021E+07,
2460511.500000000, A.D. 2024-Jul-20 00:00:00.0000, -2.222797848956330E+08, 2.002924333209825E+08, 4.631617159652418E+07,
2460518.500000000, A.D. 2024-Jul-27 00:00:00.0000, -2.307749629547012E+08, 1.921835722016230E+08, 4.267195498241697E+07,
2460525.500000000, A.D. 2024-Aug-03 00:00:00.0000, -2.388687884351166E+08, 1.837404613772498E+08, 3.895351749396314E+07,
2460532.500000000, A.D. 2024-Aug-10 00:00:00.0000, -2.465493685588024E+08, 1.749794638723601E+08, 3.516768265018325E+07,
2460539.500000000, A.D. 2024-Aug-17 00:00:00.0000, -2.538055212618735E+08, 1.659172299698323E+08, 3.132130079455288E+07,
2460546.500000000, A.D. 2024-Aug-24 00:00:00.0000, -2.606267697448852E+08, 1.565706760392137E+08, 2.742124244745444E+07,
2460553.500000000, A.D. 2024-Aug-31 00:00:00.0000, -2.670033369209278E+08, 1.469569644693905E+08, 2.347439206860836E+07,
2460560.500000000, A.D. 2024-Sep-07 00:00:00.0000, -2.729261394867814E+08, 1.370934847532422E+08, 1.948764216539545E+07,
2460567.500000000, A.D. 2024-Sep-14 00:00:00.0000, -2.783867816147579E+08, 1.269978366341301E+08, 1.546788778101795E+07,
2460574.500000000, A.D. 2024-Sep-21 00:00:00.0000, -2.833775503739132E+08, 1.166878156379545E+08, 1.142202154435037E+07,
2460581.500000000, A.D. 2024-Sep-28 00:00:00.0000, -2.878914134466102E+08, 1.061813976790525E+08, 7.356929025369279E+06,
2460588.500000000, A.D. 2024-Oct-05 00:00:00.0000, -2.919220155308920E+08, 9.549672266130126E+07, 3.279484023051895E+06,
2460595.500000000, A.D. 2024-Oct-12 00:00:00.0000, -2.954636738319250E+08, 8.465207996146221E+07, -8.034559728911147E+05,
2460602.500000000, A.D. 2024-Oct-19 00:00:00.0000, -2.985113744460078E+08, 7.366589542769459E+07, -4.885054042524260E+06,
2460609.500000000, A.D. 2024-Oct-26 00:00:00.0000, -3.010607697210458E+08, 6.255671900677425E+07, -8.958497915793572E+06,
2460616.500000000, A.D. 2024-Nov-02 00:00:00.0000, -3.031081763726590E+08, 5.134321276720963E+07, -1.301700394226690E+07,
2460623.500000000, A.D. 2024-Nov-09 00:00:00.0000, -3.046505742872663E+08, 4.004413925047241E+07, -1.705382099121270E+07,
2460630.500000000, A.D. 2024-Nov-16 00:00:00.0000, -3.056856060096688E+08, 2.867835006079340E+07, -2.106223431739548E+07,
2460637.500000000, A.D. 2024-Nov-23 00:00:00.0000, -3.062115768869002E+08, 1.726477455375347E+07, -2.503556943358462E+07,
2460644.500000000, A.D. 2024-Nov-30 00:00:00.0000, -3.062274556733754E+08, 5.822408491098046E+06, -2.896719604454245E+07,
2460651.500000000, A.D. 2024-Dec-07 00:00:00.0000, -3.057328751851409E+08, -5.629697007834955E+06, -3.285053207817508E+07,
2460658.500000000, A.D. 2024-Dec-14 00:00:00.0000, -3.047281336925749E+08, -1.707244508565034E+07, -3.667904768154136E+07,
2460665.500000000, A.D. 2024-Dec-21 00:00:00.0000, -3.032141993676481E+08, -2.848670267257319E+07, -4.044626910157388E+07,
2460672.500000000, A.D. 2024-Dec-28 00:00:00.0000, -3.011927158117925E+08, -3.985331297979419E+07, -4.414578290669128E+07,
2460679.500000000, A.D. 2025-Jan-04 00:00:00.0000, -2.986660060569410E+08, -5.115310867287758E+07, -4.777124062499099E+07,
2460686.500000000, A.D. 2025-Jan-11 00:00:00.0000, -2.956370768335153E+08, -6.236692415523141E+07, -5.131636352381188E+07,
2460693.500000000, A.D. 2025-Jan-18 00:00:00.0000, -2.921096239900442E+08, -7.347560797956964E+07, -5.477494754914719E+07,
2460700.500000000, A.D. 2025-Jan-25 00:00:00.0000, -2.880880387920847E+08, -8.446003596278988E+07, -5.814086851680563E+07,
2460707.500000000, A.D. 2025-Feb-01 00:00:00.0000, -2.835774148765938E+08, -9.530112513083336E+07, -6.140808760595546E+07,
2460714.500000000, A.D. 2025-Feb-08 00:00:00.0000, -2.785835557577841E+08, -1.059798485696124E+08, -6.457065718756002E+07,
$$EOE